{
  "type": "FeatureCollection",
  "features": [
    {
      "type": "Feature",
      "properties": {
        "norad_id": 41589,
        "name": "EUTELSAT 117 WEST B (WAAS/PRN 131)",
        "group": "gnss",
        "lat": -0.008816582928576894,
        "lon": 116.24969645530263,
        "alt_km": 35787.502499827664,
        "timestamp": "2025-12-20T09:36:01.888065+00:00",
        "meta_object_name": "EUTELSAT 117 WEST B (WAAS/PRN 131)",
        "meta_object_id": "2016-038B",
        "meta_epoch": "2025-12-19T12:07:15.989088",
        "meta_mean_motion": 1.00271292,
        "meta_eccentricity": 3.33e-05,
        "meta_inclination": 0.0139,
        "meta_ra_of_asc_node": 154.0822,
        "meta_arg_of_pericenter": 162.5919,
        "meta_mean_anomaly": 196.5118,
        "meta_ephemeris_type": 0,
        "meta_classification_type": "U",
        "meta_norad_cat_id": 41589,
        "meta_element_set_no": 999,
        "meta_rev_at_epoch": 3486,
        "meta_bstar": 0,
        "meta_mean_motion_dot": 1.3e-07,
        "meta_mean_motion_ddot": 0,
        "tle_line1": "1 41589U 16038B   25353.50504617  .00000013  00000+0  00000+0 0  9993",
        "tle_line2": "2 41589   0.0139 154.0822 0000333 162.5919 196.5118  1.00271292 34862"
      },
      "geometry": {
        "type": "Point",
        "coordinates": [
          116.24969645530263,
          -0.008816582928576894
        ]
      }
    },
    {
      "type": "Feature",
      "properties": {
        "norad_id": 41859,
        "name": "GSAT0207 (GALILEO 15)",
        "group": "gnss",
        "lat": -12.08772615350373,
        "lon": 97.53774205814094,
        "alt_km": 23217.675643902527,
        "timestamp": "2025-12-20T09:36:01.888077+00:00",
        "meta_object_name": "GSAT0207 (GALILEO 15)",
        "meta_object_id": "2016-069A",
        "meta_epoch": "2025-12-19T06:01:13.799424",
        "meta_mean_motion": 1.70474539,
        "meta_eccentricity": 0.0002355,
        "meta_inclination": 55.3858,
        "meta_ra_of_asc_node": 106.07,
        "meta_arg_of_pericenter": 318.8542,
        "meta_mean_anomaly": 41.0896,
        "meta_ephemeris_type": 0,
        "meta_classification_type": "U",
        "meta_norad_cat_id": 41859,
        "meta_element_set_no": 999,
        "meta_rev_at_epoch": 5633,
        "meta_bstar": 0,
        "meta_mean_motion_dot": -6e-08,
        "meta_mean_motion_ddot": 0,
        "tle_line1": "1 41859U 16069A   25353.25085416 -.00000006  00000+0  00000+0 0  9993",
        "tle_line2": "2 41859  55.3858 106.0700 0002355 318.8542  41.0896  1.70474539 56338"
      },
      "geometry": {
        "type": "Point",
        "coordinates": [
          97.53774205814094,
          -12.08772615350373
        ]
      }
    },
    {
      "type": "Feature",
      "properties": {
        "norad_id": 41860,
        "name": "GSAT0212 (GALILEO 16)",
        "group": "gnss",
        "lat": 52.712384811512294,
        "lon": 170.96408910141977,
        "alt_km": 23212.314926578692,
        "timestamp": "2025-12-20T09:36:01.888088+00:00",
        "meta_object_name": "GSAT0212 (GALILEO 16)",
        "meta_object_id": "2016-069B",
        "meta_epoch": "2025-12-18T12:25:48.697536",
        "meta_mean_motion": 1.70474692,
        "meta_eccentricity": 0.00020646,
        "meta_inclination": 55.3831,
        "meta_ra_of_asc_node": 106.0857,
        "meta_arg_of_pericenter": 21.766,
        "meta_mean_anomaly": 338.2025,
        "meta_ephemeris_type": 0,
        "meta_classification_type": "U",
        "meta_norad_cat_id": 41860,
        "meta_element_set_no": 999,
        "meta_rev_at_epoch": 5657,
        "meta_bstar": 0,
        "meta_mean_motion_dot": -8e-08,
        "meta_mean_motion_ddot": 0,
        "tle_line1": "1 41860U 16069B   25352.51792474 -.00000008  00000+0  00000+0 0  9994",
        "tle_line2": "2 41860  55.3831 106.0857 0002064  21.7660 338.2025  1.70474692 56573"
      },
      "geometry": {
        "type": "Point",
        "coordinates": [
          170.96408910141977,
          52.712384811512294
        ]
      }
    },
    {
      "type": "Feature",
      "properties": {
        "norad_id": 41861,
        "name": "GSAT0213 (GALILEO 17)",
        "group": "gnss",
        "lat": -23.913050522712524,
        "lon": -56.15795679705162,
        "alt_km": 23222.98155413327,
        "timestamp": "2025-12-20T09:36:01.888102+00:00",
        "meta_object_name": "GSAT0213 (GALILEO 17)",
        "meta_object_id": "2016-069C",
        "meta_epoch": "2025-12-17T17:05:43.699776",
        "meta_mean_motion": 1.70474994,
        "meta_eccentricity": 0.000259,
        "meta_inclination": 55.385,
        "meta_ra_of_asc_node": 106.1156,
        "meta_arg_of_pericenter": 282.1972,
        "meta_mean_anomaly": 77.7328,
        "meta_ephemeris_type": 0,
        "meta_classification_type": "U",
        "meta_norad_cat_id": 41861,
        "meta_element_set_no": 999,
        "meta_rev_at_epoch": 5642,
        "meta_bstar": 0,
        "meta_mean_motion_dot": -9e-08,
        "meta_mean_motion_ddot": 0,
        "tle_line1": "1 41861U 16069C   25351.71231134 -.00000009  00000+0  00000+0 0  9998",
        "tle_line2": "2 41861  55.3850 106.1156 0002590 282.1972  77.7328  1.70474994 56421"
      },
      "geometry": {
        "type": "Point",
        "coordinates": [
          -56.15795679705162,
          -23.913050522712524
        ]
      }
    },
    {
      "type": "Feature",
      "properties": {
        "norad_id": 41862,
        "name": "GSAT0214 (GALILEO 18)",
        "group": "gnss",
        "lat": 45.51873506107011,
        "lon": -118.58883660813936,
        "alt_km": 23221.124677180807,
        "timestamp": "2025-12-20T09:36:01.888113+00:00",
        "meta_object_name": "GSAT0214 (GALILEO 18)",
        "meta_object_id": "2016-069D",
        "meta_epoch": "2025-12-17T20:35:58.649280",
        "meta_mean_motion": 1.70474854,
        "meta_eccentricity": 0.00015422,
        "meta_inclination": 55.383,
        "meta_ra_of_asc_node": 106.1044,
        "meta_arg_of_pericenter": 289.1766,
        "meta_mean_anomaly": 70.7658,
        "meta_ephemeris_type": 0,
        "meta_classification_type": "U",
        "meta_norad_cat_id": 41862,
        "meta_element_set_no": 999,
        "meta_rev_at_epoch": 5655,
        "meta_bstar": 0,
        "meta_mean_motion_dot": -9e-08,
        "meta_mean_motion_ddot": 0,
        "tle_line1": "1 41862U 16069D   25351.85831770 -.00000009  00000+0  00000+0 0  9996",
        "tle_line2": "2 41862  55.3830 106.1044 0001542 289.1766  70.7658  1.70474854 56558"
      },
      "geometry": {
        "type": "Point",
        "coordinates": [
          -118.58883660813936,
          45.51873506107011
        ]
      }
    },
    {
      "type": "Feature",
      "properties": {
        "norad_id": 42709,
        "name": "SES-15 (WAAS/PRN 133)",
        "group": "gnss",
        "lat": 0.04039896418587937,
        "lon": 104.0833544039996,
        "alt_km": 35784.906067118616,
        "timestamp": "2025-12-20T09:36:01.888124+00:00",
        "meta_object_name": "SES-15 (WAAS/PRN 133)",
        "meta_object_id": "2017-026A",
        "meta_epoch": "2025-12-20T00:38:01.582080",
        "meta_mean_motion": 1.00274584,
        "meta_eccentricity": 5.76e-05,
        "meta_inclination": 0.0179,
        "meta_ra_of_asc_node": 344.0457,
        "meta_arg_of_pericenter": 201.4155,
        "meta_mean_anomaly": 143.7651,
        "meta_ephemeris_type": 0,
        "meta_classification_type": "U",
        "meta_norad_cat_id": 42709,
        "meta_element_set_no": 999,
        "meta_rev_at_epoch": 563,
        "meta_bstar": 0,
        "meta_mean_motion_dot": 8.3e-07,
        "meta_mean_motion_ddot": 0,
        "tle_line1": "1 42709U 17026A   25354.02640720  .00000083  00000+0  00000+0 0  9997",
        "tle_line2": "2 42709   0.0179 344.0457 0000576 201.4155 143.7651  1.00274584  5636"
      },
      "geometry": {
        "type": "Point",
        "coordinates": [
          104.0833544039996,
          0.04039896418587937
        ]
      }
    },
    {
      "type": "Feature",
      "properties": {
        "norad_id": 42738,
        "name": "QZS-2 (QZSS/PRN 194)",
        "group": "gnss",
        "lat": 31.88753421744495,
        "lon": 17.3271900775277,
        "alt_km": 38307.88070611293,
        "timestamp": "2025-12-20T09:36:01.888140+00:00",
        "meta_object_name": "QZS-2 (QZSS/PRN 194)",
        "meta_object_id": "2017-028A",
        "meta_epoch": "2025-12-18T13:55:30.556128",
        "meta_mean_motion": 1.00281517,
        "meta_eccentricity": 0.07566042,
        "meta_inclination": 39.7045,
        "meta_ra_of_asc_node": 245.7969,
        "meta_arg_of_pericenter": 269.5406,
        "meta_mean_anomaly": 282.9842,
        "meta_ephemeris_type": 0,
        "meta_classification_type": "U",
        "meta_norad_cat_id": 42738,
        "meta_element_set_no": 999,
        "meta_rev_at_epoch": 581,
        "meta_bstar": 0,
        "meta_mean_motion_dot": -1.25e-06,
        "meta_mean_motion_ddot": 0,
        "tle_line1": "1 42738U 17028A   25352.58021477 -.00000125  00000+0  00000+0 0  9990",
        "tle_line2": "2 42738  39.7045 245.7969 0756604 269.5406 282.9842  1.00281517  5810"
      },
      "geometry": {
        "type": "Point",
        "coordinates": [
          17.3271900775277,
          31.88753421744495
        ]
      }
    }
  ]
}